STARLINK-3090
1 29132C 21082C   21325.19590449 -.00649450  00000-0 -10579-1 0  3252
2 29132  69.9997 295.9743 0003463 274.6067 155.4642 15.53115719    13
